[{"OBJECT_NAME":"STARLINK-34568","OBJECT_ID":"2025-142X","EPOCH":"2026-03-09T21:56:50.582976","MEAN_MOTION":14.98333705,"ECCENTRICITY":0.0002501,"INCLINATION":70.0007,"RA_OF_ASC_NODE":313.9237,"ARG_OF_PERICENTER":271.133,"MEAN_ANOMALY":88.9543,"EPHEMERIS_TYPE":0,"CLASSIFICATION_TYPE":"U","NORAD_CAT_ID":64717,"ELEMENT_SET_NO":999,"REV_AT_EPOCH":3952,"BSTAR":0.00031641368,"MEAN_MOTION_DOT":3.685e-5,"MEAN_MOTION_DDOT":0},{"OBJECT_NAME":"CZ-6A DEB","OBJECT_ID":"2022-151BY","EPOCH":"2026-03-09T19:54:31.094784","MEAN_MOTION":14.84736827,"ECCENTRICITY":0.00926882,"INCLINATION":98.6307,"RA_OF_ASC_NODE":160.4734,"ARG_OF_PERICENTER":65.7458,"MEAN_ANOMALY":295.3404,"EPHEMERIS_TYPE":0,"CLASSIFICATION_TYPE":"U","NORAD_CAT_ID":54329,"ELEMENT_SET_NO":999,"REV_AT_EPOCH":17696,"BSTAR":0.0019746466,"MEAN_MOTION_DOT":0.00018045,"MEAN_MOTION_DDOT":0}]
